#aV2006  4 20  0  0   .00000000      96 DD+AD WGS84 FIT  NGA
## 1371 345600.00000000   900.00000000 53845  .0000000000000
+   29     1  2  3  4  5  6  7  8  9 10 11 13 14 15 16 17 18
+         19 20 21 22 23 24 25 26 27 28 29 30  0  0  0  0  0
+          0  0  0  0  0  0  0  0  0  0  0  0  0  0  0  0  0
+          0  0  0  0  0  0  0  0  0  0  0  0  0  0  0  0  0
+          0  0  0  0  0  0  0  0  0  0  0  0  0  0  0  0  0
++         0  0  0  0  0  0  0  0  0  0  0  0  0  0  0  0  0
++         0  0  0  0  0  0  0  0  0  0  0  0  0  0  0  0  0
++         0  0  0  0  0  0  0  0  0  0  0  0  0  0  0  0  0
++         0  0  0  0  0  0  0  0  0  0  0  0  0  0  0  0  0
++         0  0  0  0  0  0  0  0  0  0  0  0  0  0  0  0  0
%c cc cc ccc ccc cccc cccc cccc cccc ccccc ccccc ccccc ccccc
%c cc cc ccc ccc cccc cccc cccc cccc ccccc ccccc ccccc ccccc
%f  0.0000000  0.000000000  0.00000000000  0.000000000000000
%f  0.0000000  0.000000000  0.00000000000  0.000000000000000
%i    0    0    0    0      0      0      0      0         0
%i    0    0    0    0      0      0      0      0         0
/*      NGA, ST. LOUIS,MO.                                  
/*   EPHEMERIS COMPUTED FROM  3 DAYS OF DATA                
/* CCCCCCCCCCCCCCCCCCCCCCCCCCCCCCCCCCCCCCCCCCCCCCCCCCCCCCCCC
/* CCCCCCCCCCCCCCCCCCCCCCCCCCCCCCCCCCCCCCCCCCCCCCCCCCCCCCCCC
*  2006  4 20 14 45   .00000000                                                 
P  1 -14528.768357  20792.140586   7997.239502     48.112945                    
V  1  -8458.816882   5405.628159 -30197.736799       .021806                    
P  2   6113.040377 -14158.547457  21345.299436     -7.957822                    
V  2  26792.574211   7382.885485  -2933.967454       .022920                    
P  3  -8147.599345  22721.008174 -10895.461877     92.023337                    
V  3 -11497.353793   8372.856885  26757.830509       .033144                    
P  4  17564.102862  -8513.574202  18129.604195    209.952069                    
V  4  21722.685902   7717.009509 -17038.862737       .099255                    
P  5 -13643.756001 -21573.250166   7450.806088   -129.512366                    
V  5   -270.478824 -10227.917173 -29174.958383       .634839                    
P  6 -17621.246253  -2656.686674  19910.141998    482.889236                    
V  6  16021.686745 -19155.073583  11659.471329       .218951                    
P  7 -20533.710689  15675.560918   6843.103426    530.043729                    
V  7   3028.034139  -8342.569358  29473.547977       .039626                    
P  8  23586.937517  -1765.860959 -12622.171767    -63.187600                    
V  8  14446.783566   6192.874478  26038.113655      -.013218                    
P  9 -15690.189758 -14994.328113 -16044.184480     16.898297                    
V  9  19169.638079   2607.208255 -21650.038775       .016392                    
P 10   -342.400540 -24984.455901   8428.408254     82.105629                    
V 10   5052.125282   9982.131355  29768.250098       .006872                    
P 11  17704.597521  13676.699043 -14560.091340    321.824216                    
V 11 -18730.016990   1140.289035 -21554.112585       .025943                    
P 13  17618.415439    962.530126  19746.870538     55.928157                    
V 13 -17552.149008  18105.270073  14773.091634       .027085                    
P 14 -21040.399488  14824.076995  -6390.041009    -15.587397                    
V 14   4440.357607  -7161.574455 -30957.822006       .007401                    
P 15 -23721.000517   1105.523277 -12458.290588    599.743610                    
V 15 -13901.681116  -6990.790914  25804.852571       .062627                    
P 16  -4094.340971  22303.251166  13834.778539     37.928326                    
V 16  -6575.730978 -16320.324442  24618.943802       .022577                    
P 17  21272.491261 -13851.061533  -7666.738393     84.607457                    
V 17  -4925.769715   8834.174170 -29769.141616       .042475                    
P 18 -15993.555869  -7206.750783 -19932.248935   -231.687322                    
V 18  -4622.183401 -25042.209851  12407.072886      -.017642                    
P 19    749.979021  17791.733508 -19586.834987    -14.444552                    
V 19 -19568.917798  15804.693645  13574.360497       .016345                    
P 20  12940.433288  21124.895149   9534.890812    -28.283305                    
V 20    808.818165  12484.531947 -28443.853652       .007005                    
P 21 -26082.957554  -5040.232932  -3817.002659     22.855667                    
V 21  -3805.416433  -4149.104989  30544.248347       .028551                    
P 22 -13384.197887   8622.821241 -21106.769985     87.466954                    
V 22  -6415.230120 -26413.698286  -6678.697498       .038291                    
P 23   9410.497509  11777.614239  21765.966824    143.532751                    
V 23 -19741.510775  19641.561250  -2236.915308      -.010135                    
P 24  24971.460387    890.010505   9614.935632    102.185707                    
V 24  10544.040349   5759.196835 -28365.638781       .028755                    
P 25 -13191.451847  12206.358225  20000.377613     12.571031                    
V 25 -23997.138333  -5091.809963 -12856.877066       .024580                    
P 26   1982.975982 -18894.580272 -18676.471922    -91.972548                    
V 26  17524.813152 -15078.722923  18051.644695      -.107199                    
P 27  26342.184608   3906.369923  -1848.942451     45.155276                    
V 27   2474.828343   3199.716502  31360.111802       .016387                    
P 28  14466.054556  -4346.079640 -21555.425123     29.102944                    
V 28   7121.618620  27147.050981  -1024.341787      -.006234                    
P 29   5760.006647 -20537.449116 -15409.182493    589.406752                    
V 29  15177.420024 -13218.514655  23201.722891       .079589                    
P 30 -16290.866459 -13270.281623  16039.631294    167.094329                    
V 30  -4081.779117 -20597.885741 -20712.859736       .461631                    
EOF
